{
  "type": "FeatureCollection",
  "features": [
    {
      "type": "Feature",
      "properties": {
        "norad_id": 33748,
        "name": "FENGYUN 1C DEB",
        "group": "fengyun-1c-debris",
        "lat": -53.23905626795815,
        "lon": 41.64731498582709,
        "alt_km": 772.7710395599024,
        "timestamp": "2025-12-04T17:48:40.453183+00:00",
        "meta_object_name": "FENGYUN 1C DEB",
        "meta_object_id": "1999-025DJM",
        "meta_epoch": "2025-12-02T20:47:28.467744",
        "meta_mean_motion": 14.32170517,
        "meta_eccentricity": 0.00342544,
        "meta_inclination": 98.5881,
        "meta_ra_of_asc_node": 28.1192,
        "meta_arg_of_pericenter": 270.7052,
        "meta_mean_anomaly": 89.0206,
        "meta_ephemeris_type": 0,
        "meta_classification_type": "U",
        "meta_norad_cat_id": 33748,
        "meta_element_set_no": 999,
        "meta_rev_at_epoch": 91252,
        "meta_bstar": 0.0017361878,
        "meta_mean_motion_dot": 4.663e-05,
        "meta_mean_motion_ddot": 0,
        "tle_line1": "1 33748U 99025DJM 25336.86630171  .00004663  00000+0  17362-2 0  9990",
        "tle_line2": "2 33748  98.5881  28.1192 0034254 270.7052  89.0206 14.32170517912525"
      },
      "geometry": {
        "type": "Point",
        "coordinates": [
          41.64731498582709,
          -53.23905626795815
        ]
      }
    },
    {
      "type": "Feature",
      "properties": {
        "norad_id": 35088,
        "name": "FENGYUN 1C DEB",
        "group": "fengyun-1c-debris",
        "lat": -74.34470284957943,
        "lon": -38.60915794127395,
        "alt_km": 686.8299885635452,
        "timestamp": "2025-12-04T17:48:40.453193+00:00",
        "meta_object_name": "FENGYUN 1C DEB",
        "meta_object_id": "1999-025DJQ",
        "meta_epoch": "2025-11-29T05:34:28.115040",
        "meta_mean_motion": 14.11184638,
        "meta_eccentricity": 0.02705395,
        "meta_inclination": 94.6222,
        "meta_ra_of_asc_node": 155.3212,
        "meta_arg_of_pericenter": 245.136,
        "meta_mean_anomaly": 112.1475,
        "meta_ephemeris_type": 0,
        "meta_classification_type": "U",
        "meta_norad_cat_id": 35088,
        "meta_element_set_no": 999,
        "meta_rev_at_epoch": 58609,
        "meta_bstar": 0.0067362465,
        "meta_mean_motion_dot": 0.00017141,
        "meta_mean_motion_ddot": 0,
        "tle_line1": "1 35088U 99025DJQ 25333.23226985  .00017141  00000+0  67362-2 0  9991",
        "tle_line2": "2 35088  94.6222 155.3212 0270539 245.1360 112.1475 14.11184638586093"
      },
      "geometry": {
        "type": "Point",
        "coordinates": [
          -38.60915794127395,
          -74.34470284957943
        ]
      }
    },
    {
      "type": "Feature",
      "properties": {
        "norad_id": 35089,
        "name": "FENGYUN 1C DEB",
        "group": "fengyun-1c-debris",
        "lat": -60.88043205801392,
        "lon": 4.541415171869116,
        "alt_km": 852.7009258882108,
        "timestamp": "2025-12-04T17:48:40.453204+00:00",
        "meta_object_name": "FENGYUN 1C DEB",
        "meta_object_id": "1999-025DJR",
        "meta_epoch": "2025-12-01T07:12:14.382144",
        "meta_mean_motion": 14.19377212,
        "meta_eccentricity": 0.0029168,
        "meta_inclination": 98.5607,
        "meta_ra_of_asc_node": 345.5265,
        "meta_arg_of_pericenter": 97.6431,
        "meta_mean_anomaly": 262.806,
        "meta_ephemeris_type": 0,
        "meta_classification_type": "U",
        "meta_norad_cat_id": 35089,
        "meta_element_set_no": 999,
        "meta_rev_at_epoch": 60713,
        "meta_bstar": 0.00043403,
        "meta_mean_motion_dot": 8.74e-06,
        "meta_mean_motion_ddot": 0,
        "tle_line1": "1 35089U 99025DJR 25335.30016646  .00000874  00000+0  43403-3 0  9999",
        "tle_line2": "2 35089  98.5607 345.5265 0029168  97.6431 262.8060 14.19377212607136"
      },
      "geometry": {
        "type": "Point",
        "coordinates": [
          4.541415171869116,
          -60.88043205801392
        ]
      }
    },
    {
      "type": "Feature",
      "properties": {
        "norad_id": 35090,
        "name": "FENGYUN 1C DEB",
        "group": "fengyun-1c-debris",
        "lat": -48.11516348476293,
        "lon": 1.5692054702819835,
        "alt_km": 838.3553616168156,
        "timestamp": "2025-12-04T17:48:40.453214+00:00",
        "meta_object_name": "FENGYUN 1C DEB",
        "meta_object_id": "1999-025DJS",
        "meta_epoch": "2025-11-28T11:16:09.482016",
        "meta_mean_motion": 14.17474979,
        "meta_eccentricity": 0.00568935,
        "meta_inclination": 99.1993,
        "meta_ra_of_asc_node": 344.6679,
        "meta_arg_of_pericenter": 56.1043,
        "meta_mean_anomaly": 304.5524,
        "meta_ephemeris_type": 0,
        "meta_classification_type": "U",
        "meta_norad_cat_id": 35090,
        "meta_element_set_no": 999,
        "meta_rev_at_epoch": 66048,
        "meta_bstar": 0.0014922384,
        "meta_mean_motion_dot": 3.028e-05,
        "meta_mean_motion_ddot": 0,
        "tle_line1": "1 35090U 99025DJS 25332.46955419  .00003028  00000+0  14922-2 0  9992",
        "tle_line2": "2 35090  99.1993 344.6679 0056893  56.1043 304.5524 14.17474979660488"
      },
      "geometry": {
        "type": "Point",
        "coordinates": [
          1.5692054702819835,
          -48.11516348476293
        ]
      }
    },
    {
      "type": "Feature",
      "properties": {
        "norad_id": 35091,
        "name": "FENGYUN 1C DEB",
        "group": "fengyun-1c-debris",
        "lat": 72.27707255765976,
        "lon": -69.02095402793196,
        "alt_km": 711.1195398094396,
        "timestamp": "2025-12-04T17:48:40.453224+00:00",
        "meta_object_name": "FENGYUN 1C DEB",
        "meta_object_id": "1999-025DJT",
        "meta_epoch": "2025-12-02T06:09:49.044960",
        "meta_mean_motion": 14.61111684,
        "meta_eccentricity": 0.0047852,
        "meta_inclination": 98.5971,
        "meta_ra_of_asc_node": 80.1444,
        "meta_arg_of_pericenter": 324.8024,
        "meta_mean_anomaly": 35.0017,
        "meta_ephemeris_type": 0,
        "meta_classification_type": "U",
        "meta_norad_cat_id": 35091,
        "meta_element_set_no": 999,
        "meta_rev_at_epoch": 89774,
        "meta_bstar": 0.003029,
        "meta_mean_motion_dot": 0.00015113,
        "meta_mean_motion_ddot": 0,
        "tle_line1": "1 35091U 99025DJT 25336.25681765  .00015113  00000+0  30290-2 0  9998",
        "tle_line2": "2 35091  98.5971  80.1444 0047852 324.8024  35.0017 14.61111684897743"
      },
      "geometry": {
        "type": "Point",
        "coordinates": [
          -69.02095402793196,
          72.27707255765976
        ]
      }
    },
    {
      "type": "Feature",
      "properties": {
        "norad_id": 35104,
        "name": "FENGYUN 1C DEB",
        "group": "fengyun-1c-debris",
        "lat": 16.076499537044455,
        "lon": 168.1684028756253,
        "alt_km": 802.7159694118227,
        "timestamp": "2025-12-04T17:48:40.453234+00:00",
        "meta_object_name": "FENGYUN 1C DEB",
        "meta_object_id": "1999-025DKG",
        "meta_epoch": "2025-12-02T21:37:58.258272",
        "meta_mean_motion": 14.20301394,
        "meta_eccentricity": 0.00308416,
        "meta_inclination": 98.5961,
        "meta_ra_of_asc_node": 343.8811,
        "meta_arg_of_pericenter": 169.0388,
        "meta_mean_anomaly": 307.9028,
        "meta_ephemeris_type": 0,
        "meta_classification_type": "U",
        "meta_norad_cat_id": 35104,
        "meta_element_set_no": 999,
        "meta_rev_at_epoch": 89627,
        "meta_bstar": 0.00050973609,
        "meta_mean_motion_dot": 1.053e-05,
        "meta_mean_motion_ddot": 0,
        "tle_line1": "1 35104U 99025DKG 25336.90136873  .00001053  00000+0  50974-3 0  9990",
        "tle_line2": "2 35104  98.5961 343.8811 0030841 169.0388 307.9028 14.20301394896270"
      },
      "geometry": {
        "type": "Point",
        "coordinates": [
          168.1684028756253,
          16.076499537044455
        ]
      }
    },
    {
      "type": "Feature",
      "properties": {
        "norad_id": 35105,
        "name": "FENGYUN 1C DEB",
        "group": "fengyun-1c-debris",
        "lat": -22.11523920356388,
        "lon": 135.6987272235984,
        "alt_km": 790.8229157942596,
        "timestamp": "2025-12-04T17:48:40.453244+00:00",
        "meta_object_name": "FENGYUN 1C DEB",
        "meta_object_id": "1999-025DKH",
        "meta_epoch": "2025-12-04T05:15:31.792608",
        "meta_mean_motion": 14.45343666,
        "meta_eccentricity": 0.01129319,
        "meta_inclination": 98.9426,
        "meta_ra_of_asc_node": 318.8167,
        "meta_arg_of_pericenter": 79.6132,
        "meta_mean_anomaly": 281.7764,
        "meta_ephemeris_type": 0,
        "meta_classification_type": "U",
        "meta_norad_cat_id": 35105,
        "meta_element_set_no": 999,
        "meta_rev_at_epoch": 94370,
        "meta_bstar": 0.00063264562,
        "meta_mean_motion_dot": 2.353e-05,
        "meta_mean_motion_ddot": 0,
        "tle_line1": "1 35105U 99025DKH 25338.21911797  .00002353  00000+0  63265-3 0  9994",
        "tle_line2": "2 35105  98.9426 318.8167 0112931  79.6132 281.7764 14.45343666943703"
      },
      "geometry": {
        "type": "Point",
        "coordinates": [
          135.6987272235984,
          -22.11523920356388
        ]
      }
    }
  ]
}